{"type": "FeatureCollection", "features": [ {"type": "Feature", "properties": {"norad_id": 66664, "name": "SOYUZ-MS 28", "group": "last-30-days", "lat": -0.4573742928143556, "lon": 176.948345797493, "alt_km": 421.59133269938957, "timestamp": "2025-12-05T16:54:13.487468+00:00", "meta": {"OBJECT_NAME": "SOYUZ-MS 28", "OBJECT_ID": "2025-275A", "EPOCH": "2025-12-05T06:04:12.236160", "MEAN_MOTION": 15.49328184, "ECCENTRICITY": 0.00035858, "INCLINATION": 51.6297, "RA_OF_ASC_NODE": 179.5463, "ARG_OF_PERICENTER": 206.2517, "MEAN_ANOMALY": 153.8291, "EPHEMERIS_TYPE": 0, "CLASSIFICATION_TYPE": "U", "NORAD_CAT_ID": 66664, "ELEMENT_SET_NO": 999, "REV_AT_EPOCH": 128, "BSTAR": 0.0002719745, "MEAN_MOTION_DOT": 0.00014736, "MEAN_MOTION_DDOT": 0}, "tle": {"line1": "1 66664U 25275A   25339.25291940  .00014736  00000+0  27197-3 0  9992", "line2": "2 66664  51.6297 179.5463 0003585 206.2517 153.8291 15.49328184  1284"}}, "geometry": {"type": "Point", "coordinates": [176.948345797493, -0.4573742928143556]}}, {"type": "Feature", "properties": {"norad_id": 66820, "name": "KOMPSAT-7", "group": "last-30-days", "lat": -34.5341281100176, "lon": 100.42484508767244, "alt_km": 572.3686989216985, "timestamp": "2025-12-05T16:54:13.487479+00:00", "meta": {"OBJECT_NAME": "KOMPSAT-7", "OBJECT_ID": "2025-279A", "EPOCH": "2025-12-01T20:35:16.060992", "MEAN_MOTION": 14.98310631, "ECCENTRICITY": 0.00097501, "INCLINATION": 97.6394, "RA_OF_ASC_NODE": 281.9587, "ARG_OF_PERICENTER": 255.3935, "MEAN_ANOMALY": 104.6207, "EPHEMERIS_TYPE": 0, "CLASSIFICATION_TYPE": "U", "NORAD_CAT_ID": 66820, "ELEMENT_SET_NO": 999, "REV_AT_EPOCH": 2, "BSTAR": 8.4407298e-05, "MEAN_MOTION_DOT": 9.47e-06, "MEAN_MOTION_DDOT": 0}, "tle": {"line1": "1 66820U 25279A   25335.85782478  .00000947  00000+0  84407-4 0  9990", "line2": "2 66820  97.6394 281.9587 0009750 255.3935 104.6207 14.98310631    23"}}, "geometry": {"type": "Point", "coordinates": [100.42484508767244, -34.5341281100176]}}, {"type": "Feature", "properties": {"norad_id": 66877, "name": "DUMMY PAYLOAD", "group": "last-30-days", "lat": -41.612277090745344, "lon": 48.931665733196425, "alt_km": 809.012505799612, "timestamp": "2025-12-05T16:54:13.487489+00:00", "meta": {"OBJECT_NAME": "DUMMY PAYLOAD", "OBJECT_ID": "2025-282A", "EPOCH": "2025-12-05T07:10:51.533184", "MEAN_MOTION": 14.40698574, "ECCENTRICITY": 0.08574754, "INCLINATION": 56.9554, "RA_OF_ASC_NODE": 85.7648, "ARG_OF_PERICENTER": 207.271, "MEAN_ANOMALY": 148.0712, "EPHEMERIS_TYPE": 0, "CLASSIFICATION_TYPE": "U", "NORAD_CAT_ID": 66877, "ELEMENT_SET_NO": 999, "REV_AT_EPOCH": 31, "BSTAR": 0.00029209984, "MEAN_MOTION_DOT": 0.01317241, "MEAN_MOTION_DDOT": 7.178412e-06}, "tle": {"line1": "1 66877U 25282A   25339.29920756  .01317241  71784-5  29210-3 0  9993", "line2": "2 66877  56.9554  85.7648 0857475 207.2710 148.0712 14.40698574   318"}}, "geometry": {"type": "Point", "coordinates": [48.931665733196425, -41.612277090745344]}}]}